HORYU-4                 
1 41340U 16012D   19343.63291479  .00000367  00000-0  21097-4 0  9992
2 41340  31.0046 106.8774 0013884  54.1644 306.0280 15.01372794209176
E-ST@R-II               
1 41459U 16025D   19344.05855579  .00001227  00000-0  65676-4 0  9998
2 41459  98.1013  79.3449 0167899 132.0372 229.5271 15.05900326198783
AAUSAT 4                
1 41460U 16025E   19344.20630433  .00002695  00000-0  13570-3 0  9992
2 41460  98.0973  81.2075 0157208 122.6162 239.0364 15.07977570198967
DIWATA-1                
1 41463U 98067HT  19343.94723990  .00039086  11759-4  12415-3 0  9990
2 41463  51.6276  56.2195 0001767  10.7263 159.7739 15.92126728207424
BEESAT-4                
1 41619U 16040W   19343.72249384  .00001106  00000-0  49147-4 0  9998
2 41619  97.3474  42.5323 0012594 127.0166 233.2225 15.23524860180352
CANX-7                  
1 41788U 16059F   19344.15294128  .00004952  00000-0  72360-3 0  9993
2 41788  98.2484  62.6455 0032625 179.0260 181.1046 14.75826235171728
RAVAN                   
1 41849U 16067B   19343.83100891  .00000818  00000-0  73742-4 0  9990
2 41849  97.9258  85.6152 0009664 153.1012 207.0713 14.98385216168072
CELTEE 1                
1 41850U 16067C   19343.78942203 -.00000292  00000-0 -20004-4 0  9998
2 41850  97.9225  83.8359 0009218 154.7862 205.3811 14.97093594167974
OPTICUBE 04             
1 41851U 16067D   19343.82250606  .00000346  00000-0  35459-4 0  9991
2 41851  97.9208  83.5841 0009585 157.6186 202.5455 14.96857862167964
AEROCUBE 8D             
1 41852U 16067E   19343.83409712  .00000774  00000-0  72849-4 0  9996
2 41852  97.9223  83.4230 0010361 157.1012 203.0673 14.96805517167946
AEROCUBE 8C             
1 41853U 16067F   19343.86113566 -.00000379  00000-0 -27767-4 0  9991
2 41853  97.9220  83.3727 0010317 159.9706 200.1922 14.96769876167947
PROMETHEUS 2-1          
1 41854U 16067G   19343.86779721 -.00000129  00000-0 -58751-5 0  9994
2 41854  97.9225  83.5973 0010654 160.3371 199.8263 14.97030815167954
PROMETHEUS 2-3          
1 41855U 16067H   19343.80260022 -.00000070  00000-0 -74009-6 0  9998
2 41855  97.9227  83.5545 0010837 161.1537 199.0088 14.97037934167943
INS-1B                  
1 41954U 17008G   19344.13548755  .00001043  00000-0  45523-4 0  9999
2 41954  97.3806  46.7245 0007614 247.4944 112.5488 15.24323512156377
BGUSAT                  
1 41999U 17008BD  19344.18778683  .00001777  00000-0  70345-4 0  9992
2 41999  97.3898  49.9293 0006499 259.8974 100.1531 15.26737489155910
DIDO-2                  
1 42000U 17008BE  19344.13568924  .00000727  00000-0  32758-4 0  9996
2 42000  97.3818  47.2732 0006826 270.3582  89.6873 15.24166607155772
PEASSS                  
1 42015U 17008BV  19344.18266164  .00000915  00000-0  39278-4 0  9991
2 42015  97.3832  48.5613 0004706 276.1219  83.9483 15.25201940156341
AL-FARABI 1             
1 42016U 17008BW  19344.17014758  .00001190  00000-0  49184-4 0  9994
2 42016  97.3852  49.3053 0004581 275.0849  84.9867 15.25926096156500
NAYIF-1 (EO-88)         
1 42017U 17008BX  19343.69465443  .00001171  00000-0  48402-4 0  9993
2 42017  97.3850  48.8471 0004579 277.4560  82.6158 15.25961611156454
ALTAIR PATHFINDER       
1 42711U 98067LS  19341.54612871  .05047864  12404-4  48655-3 0  9997
2 42711  51.6131 104.3875 0007128 330.3172  29.7448 16.37525667146451
NSIGHT                  
1 42726U 98067MF  19344.11822357  .00041382  00000-0  21069-3 0  9990
2 42726  51.6308 131.4420 0003253 157.5009 202.6136 15.80984891145318
UCLSAT                  
1 42765U 17036A   19344.11966867  .00000981  00000-0  44506-4 0  9997
2 42765  97.3295  38.2114 0010785 344.6968  15.3941 15.23093091137019
LITUANICASAT-2          
1 42768U 17036D   19343.88422653  .00001582  00000-0  69384-4 0  9992
2 42768  97.3340  37.7118 0013969 333.0238  27.0271 15.23361889136827
AALTO-1                 
1 42775U 17036L   19343.88578391  .00000598  00000-0  29523-4 0  9998
2 42775  97.3275  36.3118 0013077 335.4542  24.6070 15.21565927136693
URSA MAIOR              
1 42776U 17036M   19344.09338339  .00000652  00000-0  31766-4 0  9992
2 42776  97.3286  36.7218 0012879 334.5874  25.4728 15.21720002136739
COMPASS 2               
1 42777U 17036N   19344.15967469  .00001274  00000-0  56476-4 0  9998
2 42777  97.3334  38.4439 0011516 334.5155  25.5513 15.23352489136822
DIAMOND RED             
1 42783U 17036U   19343.90142531  .00000775  00000-0  36407-4 0  9999
2 42783  97.3296  37.4514 0011515 346.5258  13.5669 15.22484611136758
PEGASUS                 
1 42784U 17036V   19343.84516498  .00000871  00000-0  40174-4 0  9993
2 42784  97.3300  37.7052 0011383 346.0800  14.0121 15.22816169136763
DIAMOND GREEN           
1 42785U 17036W   19343.90027311  .00000781  00000-0  36670-4 0  9998
2 42785  97.3298  37.4794 0011426 347.2590  12.8356 15.22485073136826
DIAMOND BLUE            
1 42786U 17036X   19344.09660881  .00000761  00000-0  35780-4 0  9994
2 42786  97.3297  37.6678 0011252 346.9077  13.1866 15.22484929136775
NUDTSAT                 
1 42787U 17036Y   19344.11934339  .00001581  00000-0  68183-4 0  9994
2 42787  97.3335  38.9643 0011530 343.2205  16.8641 15.23942536136705
SUCHAI                  
1 42788U 17036Z   19344.13041075  .00001048  00000-0  47089-4 0  9993
2 42788  97.3306  38.4089 0010875 344.0325  16.0567 15.23291032136905
SKCUBE                  
1 42789U 17036AA  19343.89607082  .00000967  00000-0  43797-4 0  9993
2 42789  97.3301  38.0852 0010772 345.2763  14.8159 15.23165318136786
VZLUSAT-1               
1 42790U 17036AB  19343.90993918  .00001269  00000-0  55371-4 0  9990
2 42790  97.3322  38.7564 0010249 343.8597  16.2312 15.23924848136829
ROBUSTA-1B              
1 42792U 17036AD  19344.13558440  .00000953  00000-0  43022-4 0  9994
2 42792  97.3304  38.5136 0010352 345.2989  14.7945 15.23344424136843
CICERO 6                
1 42793U 17036AE  19344.11544097  .00000665  00000-0  31328-4 0  9992
2 42793  97.3283  38.1216 0009743 348.2675  11.8333 15.22830627136890
D-SAT                   
1 42794U 17036AF  19343.87703186  .00000113  00000-0  15457-4 0  9994
2 42794  97.5184  20.7127 0124881 281.0597  77.6599 14.91182531134294
CORVUS BC2              
1 42846U 17042X   19343.64770157  .00000253  00000-0  30226-4 0  9992
2 42846  97.5452 230.4974 0009259 186.1802 173.9305 14.92035066130950
CORVUS BC1              
1 42847U 17042Y   19343.72335956  .00000133  00000-0  18343-4 0  9999
2 42847  97.5453 230.7054 0008944 184.8320 175.2815 14.92135823130968
MIRATA                  
1 43015U 17073C   19344.01713565  .00001146  00000-0  94954-4 0  9997
2 43015  97.7212 258.4592 0253514 309.8630  48.0527 14.79298894111063
MAKERSAT 0              
1 43016U 17073D   19343.72605169  .00000815  00000-0  69206-4 0  9999
2 43016  97.7247 258.3813 0255925 311.4458  46.5020 14.78965426111019
ASTERIA                 
1 43020U 98067NH  19344.15568689  .00024526  00000-0  13115-3 0  9991
2 43020  51.6390 143.3060 0000516  79.8592 280.2467 15.80205375117345
DELLINGR (RBLE)         
1 43021U 98067NJ  19344.03818846  .00008319  00000-0  84734-4 0  9990
2 43021  51.6352 169.4541 0001994  72.2390 287.8823 15.66098160116985
AEROCUBE 7B (OCSD B)    
1 43042U 17071F   19344.13828005  .00002964  00000-0  77329-4 0  9990
2 43042  51.6383 279.4605 0005297  72.7464 287.4101 15.42236770112999
AEROCUBE 7C (OCSD C)    
1 43043U 17071G   19343.81476814  .00002864  00000-0  75101-4 0  9997
2 43043  51.6383 281.0648 0005535  75.2664 284.8935 15.42214263112912
CHEFSAT                 
1 43044U 17071H   19344.05239655  .00005776  00000-0  12632-3 0  9999
2 43044  51.6392 270.8365 0005489  77.8108 282.3494 15.45689272113074
ASGARDIA 1              
1 43049U 17071N   19343.81795736  .00002794  00000-0  73205-4 0  9995
2 43049  51.6394 280.3852 0003137  89.1498 270.9847 15.42330299112921
ISARA                   
1 43050U 17071P   19343.86934253  .00005286  00000-0  11886-3 0  9996
2 43050  51.6374 273.2915 0003145  87.8233 272.3114 15.45048982113026
PROPCUBE 2 (FAUNA)      
1 43052U 17071R   19343.85364417  .00003052  00000-0  78205-4 0  9994
2 43052  51.6392 279.1426 0003087  86.5898 273.5441 15.42680487112932
CORVUS BC3              
1 43118U 18004H   19344.18178508  .00000600  00000-0  28469-4 0  9998
2 43118  97.4684  50.7923 0010486   9.5364 350.6070 15.23079774106035
MICROMAS-2A             
1 43131U 18004W   19343.83168384  .00001444  00000-0  61432-4 0  9999
2 43131  97.4720  51.5690 0009396  12.0850 348.0611 15.24628932106048
SPACEBEE-4              
1 43139U 18004AE  19344.14097790  .00001980  00000-0  80632-4 0  9992
2 43139  97.4743  52.6494 0008733  13.3612 346.7856 15.25668982106124
SPACEBEE-3              
1 43140U 18004AF  19343.85545833  .00002619  00000-0  10359-3 0  9995
2 43140  97.4759  52.7872 0008392  13.8829 346.2639 15.26348121106114
SPACEBEE-2              
1 43141U 18004AG  19343.86844732  .00002640  00000-0  10370-3 0  9994
2 43141  97.4770  52.9505 0008345  13.3338 346.8119 15.26580039106127
SPACEBEE-1              
1 43142U 18004AH  19344.13680487  .00003004  00000-0  11664-3 0  9993
2 43142  97.4771  53.3821 0008287  12.4036 347.7405 15.26847073106161
CICERO 7                
1 43143U 18004AJ  19343.84182089  .00001293  00000-0  55157-4 0  9990
2 43143  97.4703  51.7884 0007889  23.3850 336.7745 15.24728986106063
GOMX-4B                 
1 43196U 18015E   19343.89623586  .00000219  00000-0  11921-4 0  9995
2 43196  97.4126 109.2478 0020171  57.2651 303.0522 15.24085703102870
GOMX-4A                 
1 43197U 18015F   19344.15105645  .00000589  00000-0  26991-4 0  9990
2 43197  97.4134 109.5429 0020529  57.4947  67.2017 15.24222105102929
1KUNS-PF                
1 43466U 98067NP  19343.79962394  .00031654  00000-0  21732-3 0  9999
2 43466  51.6315 166.2554 0001749 171.2327 188.8703 15.74394757 90263
